[{"OBJECT_NAME":"SATORO-T3","OBJECT_ID":"2025-135BP","EPOCH":"2026-03-09T21:54:53.647488","MEAN_MOTION":14.93899407,"ECCENTRICITY":0.00037302,"INCLINATION":97.7584,"RA_OF_ASC_NODE":184.5547,"ARG_OF_PERICENTER":312.3588,"MEAN_ANOMALY":47.7315,"EPHEMERIS_TYPE":0,"CLASSIFICATION_TYPE":"U","NORAD_CAT_ID":64589,"ELEMENT_SET_NO":999,"REV_AT_EPOCH":3908,"BSTAR":0.00028825982,"MEAN_MOTION_DOT":3.008e-5,"MEAN_MOTION_DDOT":0},{"OBJECT_NAME":"ELECTRON KICK STAGE R\/B","OBJECT_ID":"2024-142B","EPOCH":"2026-03-09T15:23:52.223424","MEAN_MOTION":14.92775872,"ECCENTRICITY":0.00111704,"INCLINATION":53.0025,"RA_OF_ASC_NODE":123.5023,"ARG_OF_PERICENTER":159.154,"MEAN_ANOMALY":200.99,"EPHEMERIS_TYPE":0,"CLASSIFICATION_TYPE":"U","NORAD_CAT_ID":60420,"ELEMENT_SET_NO":999,"REV_AT_EPOCH":8568,"BSTAR":0.00040968157,"MEAN_MOTION_DOT":4.033e-5,"MEAN_MOTION_DDOT":0}]
